{
  "norad_id": 65484,
  "name": "STARLINK-35089",
  "history": [
    {
      "epoch": "2026-04-16T15:59:12.088032Z",
      "apogee_km": 476.3038224285683,
      "perigee_km": 474.3286572048528,
      "latitude_deg": -4.927743843665829e-05,
      "longitude_deg": -2.54285243062456,
      "height_km": 475.94721249274517,
      "semi_major_axis_km": 6853.45323981671,
      "eccentricity": 0.0001441,
      "inclination_deg": 53.1596,
      "raan_deg": 82.0681,
      "arg_perigee_deg": 74.3207,
      "mean_anomaly_deg": 285.7952,
      "mean_motion_rev_day": 15.30166117
    },
    {
      "epoch": "2026-04-17T21:46:14.069856Z",
      "apogee_km": 476.27305261463243,
      "perigee_km": 474.1963439226229,
      "latitude_deg": -1.8698828898758347e-05,
      "longitude_deg": -96.28786621210304,
      "height_km": 475.80229500706525,
      "semi_major_axis_km": 6853.371698268627,
      "eccentricity": 0.00015151,
      "inclination_deg": 53.16,
      "raan_deg": 76.3045,
      "arg_perigee_deg": 71.4546,
      "mean_anomaly_deg": 288.6619,
      "mean_motion_rev_day": 15.30193426
    },
    {
      "epoch": "2026-04-18T21:17:01.453632Z",
      "apogee_km": 476.48127726763323,
      "perigee_km": 473.8153492807687,
      "latitude_deg": -1.5032324951555765e-05,
      "longitude_deg": -94.50134703676144,
      "height_km": 475.8964581901891,
      "semi_major_axis_km": 6853.2853132742,
      "eccentricity": 0.0001945,
      "inclination_deg": 53.1612,
      "raan_deg": 71.7541,
      "arg_perigee_deg": 83.5762,
      "mean_anomaly_deg": 276.546,
      "mean_motion_rev_day": 15.30222358
    },
    {
      "epoch": "2026-04-19T20:47:48.236928Z",
      "apogee_km": 476.29707769975266,
      "perigee_km": 474.0012268387418,
      "latitude_deg": 2.6145208052729497e-06,
      "longitude_deg": -92.7128097870673,
      "height_km": 475.7957826698847,
      "semi_major_axis_km": 6853.2861522692465,
      "eccentricity": 0.0001675,
      "inclination_deg": 53.1607,
      "raan_deg": 67.2032,
      "arg_perigee_deg": 77.3687,
      "mean_anomaly_deg": 282.7501,
      "mean_motion_rev_day": 15.30222077
    },
    {
      "epoch": "2026-04-20T06:12:07.329888Z",
      "apogee_km": 476.3653704537701,
      "perigee_km": 474.0366062053363,
      "latitude_deg": 1.1312520545388375e-06,
      "longitude_deg": 124.00147227487966,
      "height_km": 475.8530030156009,
      "semi_major_axis_km": 6853.337988329553,
      "eccentricity": 0.0001699,
      "inclination_deg": 53.1617,
      "raan_deg": 65.3833,
      "arg_perigee_deg": 77.8181,
      "mean_anomaly_deg": 282.301,
      "mean_motion_rev_day": 15.30204716
    },
    {
      "epoch": "2026-04-21T13:33:11.037312Z",
      "apogee_km": 476.3009789395164,
      "perigee_km": 474.10105743567874,
      "latitude_deg": -4.001195092308208e-05,
      "longitude_deg": 6.379349860517777,
      "height_km": 476.05295467309776,
      "semi_major_axis_km": 6853.338018187597,
      "eccentricity": 0.0001605,
      "inclination_deg": 53.1621,
      "raan_deg": 59.3142,
      "arg_perigee_deg": 87.608,
      "mean_anomaly_deg": 272.5104,
      "mean_motion_rev_day": 15.30204706
    },
    {
      "epoch": "2026-04-22T13:03:59.552064Z",
      "apogee_km": 476.37456047730393,
      "perigee_km": 474.1033516854586,
      "latitude_deg": -3.6413662630518827e-05,
      "longitude_deg": 8.158741120311106,
      "height_km": 476.0888620647813,
      "semi_major_axis_km": 6853.375956081381,
      "eccentricity": 0.0001657,
      "inclination_deg": 53.163,
      "raan_deg": 54.7614,
      "arg_perigee_deg": 87.5797,
      "mean_anomaly_deg": 272.5393,
      "mean_motion_rev_day": 15.30192
    },
    {
      "epoch": "2026-04-23T12:34:46.587648Z",
      "apogee_km": 475.4121535087734,
      "perigee_km": 474.89664892957444,
      "latitude_deg": -1.8604617105664027e-05,
      "longitude_deg": 9.947823462827126,
      "height_km": 476.30793688627574,
      "semi_major_axis_km": 6853.291401219174,
      "eccentricity": 3.761e-05,
      "inclination_deg": 53.1599,
      "raan_deg": 50.2121,
      "arg_perigee_deg": 190.1017,
      "mean_anomaly_deg": 169.9976,
      "mean_motion_rev_day": 15.30220319
    },
    {
      "epoch": "2026-04-24T19:55:50.938752Z",
      "apogee_km": 476.03593225585155,
      "perigee_km": 474.3979806602574,
      "latitude_deg": 7.77076416454679e-07,
      "longitude_deg": -107.67404167912012,
      "height_km": 476.2429571074989,
      "semi_major_axis_km": 6853.353956458054,
      "eccentricity": 0.0001195,
      "inclination_deg": 53.1586,
      "raan_deg": 44.1459,
      "arg_perigee_deg": 98.9887,
      "mean_anomaly_deg": 261.1249,
      "mean_motion_rev_day": 15.30199368
    },
    {
      "epoch": "2026-04-25T11:36:22.607136Z",
      "apogee_km": 475.8891410185788,
      "perigee_km": 474.4321299412759,
      "latitude_deg": 4.032266947513342e-06,
      "longitude_deg": 13.514340557368477,
      "height_km": 475.8240574496156,
      "semi_major_axis_km": 6853.2976354799275,
      "eccentricity": 0.0001063,
      "inclination_deg": 53.1578,
      "raan_deg": 41.11,
      "arg_perigee_deg": 71.199,
      "mean_anomaly_deg": 288.9126,
      "mean_motion_rev_day": 15.30218231
    },
    {
      "epoch": "2026-04-26T18:57:26.696448Z",
      "apogee_km": 475.8967647797799,
      "perigee_km": 474.44002618491686,
      "latitude_deg": -4.340151116566154e-06,
      "longitude_deg": -104.10694947332466,
      "height_km": 475.78660117481417,
      "semi_major_axis_km": 6853.305395482348,
      "eccentricity": 0.00010628,
      "inclination_deg": 53.158,
      "raan_deg": 35.0433,
      "arg_perigee_deg": 67.3874,
      "mean_anomaly_deg": 292.7239,
      "mean_motion_rev_day": 15.30215632
    },
    {
      "epoch": "2026-04-27T04:21:45.978624Z",
      "apogee_km": 476.0239963659733,
      "perigee_km": 474.41071675043804,
      "latitude_deg": -2.9304147576419447e-05,
      "longitude_deg": 112.60732554064488,
      "height_km": 475.7812861566599,
      "semi_major_axis_km": 6853.354356558205,
      "eccentricity": 0.0001177,
      "inclination_deg": 53.1588,
      "raan_deg": 33.2242,
      "arg_perigee_deg": 65.5165,
      "mean_anomaly_deg": 294.5958,
      "mean_motion_rev_day": 15.30199234
    },
    {
      "epoch": "2026-04-28T03:52:34.136544Z",
      "apogee_km": 476.00014639928486,
      "perigee_km": 474.472940638846,
      "latitude_deg": -3.151731601706215e-05,
      "longitude_deg": 114.3907065912532,
      "height_km": 476.1299559528082,
      "semi_major_axis_km": 6853.373543519065,
      "eccentricity": 0.00011142,
      "inclination_deg": 53.16,
      "raan_deg": 28.6739,
      "arg_perigee_deg": 89.6341,
      "mean_anomaly_deg": 270.4787,
      "mean_motion_rev_day": 15.30192808
    },
    {
      "epoch": "2026-04-29T17:29:50.805600Z",
      "apogee_km": 476.19244822662677,
      "perigee_km": 474.187164803041,
      "latitude_deg": 3.976343289060591e-05,
      "longitude_deg": -98.75374568713197,
      "height_km": 475.8051607672347,
      "semi_major_axis_km": 6853.326806514834,
      "eccentricity": 0.0001463,
      "inclination_deg": 53.1604,
      "raan_deg": 21.3939,
      "arg_perigee_deg": 73.6301,
      "mean_anomaly_deg": 286.4861,
      "mean_motion_rev_day": 15.30208461
    },
    {
      "epoch": "2026-04-30T10:44:26.068416Z",
      "apogee_km": 476.4841774776387,
      "perigee_km": 473.9123948781471,
      "latitude_deg": 5.828998589971042e-06,
      "longitude_deg": -1.4493496369136902,
      "height_km": 476.39482007672416,
      "semi_major_axis_km": 6853.335286177892,
      "eccentricity": 0.00018763,
      "inclination_deg": 53.1611,
      "raan_deg": 18.0534,
      "arg_perigee_deg": 103.4515,
      "mean_anomaly_deg": 256.6695,
      "mean_motion_rev_day": 15.30205621
    },
    {
      "epoch": "2026-05-02T12:00:02.998944Z",
      "apogee_km": 463.21350309957234,
      "perigee_km": 462.3802773517418,
      "latitude_deg": 7.843595146435767,
      "longitude_deg": 142.16875690385214,
      "height_km": 462.9867380501433,
      "semi_major_axis_km": 6840.933890225657,
      "eccentricity": 6.09e-05,
      "inclination_deg": 53.1602,
      "raan_deg": 8.4893,
      "arg_perigee_deg": 84.7109,
      "mean_anomaly_deg": 85.425,
      "mean_motion_rev_day": 15.34368492
    },
    {
      "epoch": "2026-05-03T20:00:01.999008Z",
      "apogee_km": 463.27122495975163,
      "perigee_km": 462.15890241419766,
      "latitude_deg": -16.65188645206721,
      "longitude_deg": -172.35814621621395,
      "height_km": 467.3578422948699,
      "semi_major_axis_km": 6840.852063686974,
      "eccentricity": 8.13e-05,
      "inclination_deg": 53.1595,
      "raan_deg": 2.2577,
      "arg_perigee_deg": 82.5516,
      "mean_anomaly_deg": 256.6934,
      "mean_motion_rev_day": 15.34396022
    },
    {
      "epoch": "2026-05-04T20:00:01.999008Z",
      "apogee_km": 463.16620336064534,
      "perigee_km": 462.2249048012045,
      "latitude_deg": 50.394900026872854,
      "longitude_deg": -49.362301367956235,
      "height_km": 468.1451658134423,
      "semi_major_axis_km": 6840.832554080925,
      "eccentricity": 6.88e-05,
      "inclination_deg": 53.1588,
      "raan_deg": 357.5832,
      "arg_perigee_deg": 93.4884,
      "mean_anomaly_deg": 12.6421,
      "mean_motion_rev_day": 15.34402586
    },
    {
      "epoch": "2026-05-05T18:59:20.245056Z",
      "apogee_km": 463.1520861285353,
      "perigee_km": 462.3188678608367,
      "latitude_deg": 6.105945543143776e-05,
      "longitude_deg": -155.39153186251175,
      "height_km": 463.53565422948515,
      "semi_major_axis_km": 6840.872476994686,
      "eccentricity": 6.09e-05,
      "inclination_deg": 53.1592,
      "raan_deg": 353.1039,
      "arg_perigee_deg": 76.0636,
      "mean_anomaly_deg": 284.0435,
      "mean_motion_rev_day": 15.34389154
    }
  ]
}